H1 CPF 01  gfz 2022 07 16 00  6971 tandemx   
H2 1003001  6202 36605    2022 07 16 00 59 42 2022 07 21 00 00 42   120 1 1  0 0 0
H9
10 0 59780  55422.000000  0    2349910.347    848338.813   6408852.060
10 0 59780  55542.000000  0    1696280.219    251073.888   6660878.475
10 0 59780  55662.000000  0    1002664.986   -338784.247   6795850.675
10 0 59780  55782.000000  0     281395.263   -910350.927   6811413.631
10 0 59780  55902.000000  0    -454534.533  -1453283.347   6707297.390
10 0 59780  56022.000000  0   -1191700.183  -1957967.489   6485320.817
10 0 59780  56142.000000  0   -1916491.388  -2415688.243   6149360.135
10 0 59780  56262.000000  0   -2615360.576  -2818779.647   5705286.010
10 0 59780  56382.000000  0   -3275077.247  -3160756.277   5160869.679
10 0 59780  56502.000000  0   -3882983.673  -3436421.458   4525652.451
10 0 59780  56622.000000  0   -4427242.118  -3641948.682   3810781.926
10 0 59780  56742.000000  0   -4897070.324  -3774935.788   3028819.472
10 0 59780  56862.000000  0   -5282961.086  -3834431.015   2193521.274
10 0 59780  56982.000000  0   -5576881.217  -3820930.261   1319593.950
10 0 59780  57102.000000  0   -5772442.653  -3736343.479    422429.736
10 0 59780  57222.000000  0   -5865042.223  -3583931.677   -482171.985
10 0 59780  57342.000000  0   -5851966.398  -3368216.526  -1378292.037
10 0 59780  57462.000000  0   -5732456.871  -3094863.569  -2250181.748
10 0 59780  57582.000000  0   -5507735.323  -2770542.811  -3082546.609
10 0 59780  57702.000000  0   -5180989.269  -2402771.680  -3860818.608
10 0 59780  57822.000000  0   -4757319.074  -1999743.688  -4571411.671
10 0 59780  57942.000000  0   -4243648.674  -1570147.938  -5201955.868
10 0 59780  58062.000000  0   -3648602.111  -1122983.217  -5741506.720
10 0 59780  58182.000000  0   -2982349.447   -667370.935  -6180725.470
10 0 59780  58302.000000  0   -2256426.612   -212371.544  -6512029.305
10 0 59780  58422.000000  0   -1483532.011    233191.900  -6729710.696
10 0 59780  58542.000000  0    -677304.742    660899.689  -6830024.357
10 0 59780  58662.000000  0     147911.465   1062890.179  -6811244.528
10 0 59780  58782.000000  0     977316.449   1431999.969  -6673691.148
10 0 59780  58902.000000  0    1795912.686   1761888.344  -6419727.739
10 0 59780  59022.000000  0    2588771.276   2047145.286  -6053725.149
10 0 59780  59142.000000  0    3341300.274   2283379.753  -5581993.790
10 0 59780  59262.000000  0    4039510.142   2467287.415  -5012684.876
10 0 59780  59382.000000  0    4670275.295   2596697.703  -4355662.005
10 0 59780  59502.000000  0    5221586.065   2670598.346  -3622340.455
10 0 59780  59622.000000  0    5682783.916   2689136.463  -2825497.179
10 0 59780  59742.000000  0    6044777.269   2653596.571  -1979055.192
10 0 59780  59862.000000  0    6300231.518   2566354.613  -1097841.083
10 0 59780  59982.000000  0    6443726.269   2430808.626   -197323.456
10 0 59780  60102.000000  0    6471877.158   2251287.574    706664.849
10 0 59780  60222.000000  0    6383415.502   2032939.619   1598212.037
10 0 59780  60342.000000  0    6179229.091   1781605.352   2461615.149
10 0 59780  60462.000000  0    5862357.881   1503675.796   3281666.582
10 0 59780  60582.000000  0    5437945.838   1205940.482   4043929.380
10 0 59780  60702.000000  0    4913149.624    895429.321   4734996.453
10 0 59780  60822.000000  0    4297009.410    579253.197   5342727.150
10 0 59780  60942.000000  0    3600283.774    264445.652   5856460.447
10 0 59780  61062.000000  0    2835251.370    -42189.817   6267197.686
10 0 59780  61182.000000  0    2015487.917   -334222.342   6567753.286
10 0 59780  61302.000000  0    1155621.456   -605725.308   6752875.307
10 0 59780  61422.000000  0     271067.918   -851394.860   6819332.831
10 0 59780  61542.000000  0    -622246.564  -1066652.189   6765967.623
10 0 59780  61662.000000  0   -1508171.689  -1247728.706   6593712.255
10 0 59780  61782.000000  0   -2370623.588  -1391731.978   6305573.750
10 0 59780  61902.000000  0   -3193874.742  -1496691.143   5906584.673
10 0 59780  62022.000000  0   -3962842.646  -1561582.732   5403723.183
10 0 59780  62142.000000  0   -4663371.471  -1586336.886   4805797.039
10 0 59780  62262.000000  0   -5282499.561  -1571822.164   4123294.257
10 0 59780  62382.000000  0   -5808707.055  -1519809.023   3368201.964
10 0 59780  62502.000000  0   -6232138.223  -1432912.866   2553797.927
10 0 59780  62622.000000  0   -6544796.241  -1314518.908   1694417.804
10 0 59780  62742.000000  0   -6740704.506  -1168689.667    805197.740
10 0 59780  62862.000000  0   -6816026.272  -1000056.663    -98199.981
10 0 59780  62982.000000  0   -6769141.805   -813699.596   -999871.486
10 0 59780  63102.000000  0   -6600680.549   -615016.248  -1883960.487
10 0 59780  63222.000000  0   -6313507.787   -409586.498  -2734944.144
10 0 59780  63342.000000  0   -5912668.558   -203034.920  -3537911.561
10 0 59780  63462.000000  0   -5405287.031      -893.336  -4278828.884
10 0 59780  63582.000000  0   -4800426.106    191532.083  -4944782.916
10 0 59780  63702.000000  0   -4108913.036    369286.081  -5524200.891
10 0 59780  63822.000000  0   -3343134.329    527878.586  -6007043.400
10 0 59780  63942.000000  0   -2516805.320    663385.585  -6384966.577
10 0 59780  64062.000000  0   -1644721.512    772535.612  -6651454.142
10 0 59780  64182.000000  0    -742493.496    852780.407  -6801919.455
10 0 59780  64302.000000  0     173728.554    902348.755  -6833774.431
10 0 59780  64422.000000  0    1087535.764    920282.167  -6746469.243
10 0 59780  64542.000000  0    1982547.692    906452.544  -6541503.539
10 0 59780  64662.000000  0    2842700.304    861561.810  -6222403.430
10 0 59780  64782.000000  0    3652529.762    787123.288  -5794666.715
10 0 59780  64902.000000  0    4397447.325    685424.339  -5265677.236
10 0 59780  65022.000000  0    5064003.354    559471.400  -4644589.340
10 0 59780  65142.000000  0    5640136.190    412918.522  -3942180.642
10 0 59780  65262.000000  0    6115398.910    249979.601  -3170674.276
10 0 59780  65382.000000  0    6481159.794     75326.673  -2343533.968
10 0 59780  65502.000000  0    6730772.932   -106024.204  -1475232.929
10 0 59780  65622.000000  0    6859711.313   -288836.687   -580999.358
10 0 59780  65742.000000  0    6865659.093   -467784.076    323454.282
10 0 59780  65862.000000  0    6748561.453   -637583.263   1222213.869
10 0 59780  65982.000000  0    6510628.667   -793128.708   2099452.083
10 0 59780  66102.000000  0    6156294.702   -929622.831   2939717.091
10 0 59780  66222.000000  0    5692128.819  -1042699.430   3728212.781
10 0 59780  66342.000000  0    5126706.997  -1128536.800   4451064.379
10 0 59780  66462.000000  0    4470444.037  -1183959.041   5095566.144
10 0 59780  66582.000000  0    3735391.252  -1206520.711   5650404.312
10 0 59780  66702.000000  0    2935005.897  -1194574.306   6105853.049
10 0 59780  66822.000000  0    2083896.885  -1147320.104   6453939.693
10 0 59780  66942.000000  0    1197553.343  -1064836.843   6688578.910
10 0 59780  67062.000000  0     292058.561   -948092.350   6805673.785
10 0 59780  67182.000000  0    -616203.272   -798933.796   6803181.677
10 0 59780  67302.000000  0   -1510842.518   -620058.689   6681146.546
10 0 59780  67422.000000  0   -2375758.328   -414966.212   6441697.994
10 0 59780  67542.000000  0   -3195427.135   -187889.838   6089017.019
10 0 59780  67662.000000  0   -3955182.543     56287.768   5629268.702
10 0 59780  67782.000000  0   -4641482.083    312136.126   5070500.693
10 0 59780  67902.000000  0   -5242155.061    573792.711   4422508.030
10 0 59780  68022.000000  0   -5746626.971    835091.317   3696665.821
10 0 59780  68142.000000  0   -6146114.366   1089700.444   2905732.113
10 0 59780  68262.000000  0   -6433787.583   1331268.692   2063624.246
10 0 59780  68382.000000  0   -6604896.419   1553573.249   1185171.305
10 0 59780  68502.000000  0   -6656855.977   1750668.548    285847.167
10 0 59780  68622.000000  0   -6589287.967   1917030.969   -618510.889
10 0 59780  68742.000000  0   -6404016.822   2047694.998  -1511990.080
10 0 59780  68862.000000  0   -6105022.218   2138378.370  -2378890.105
10 0 59780  68982.000000  0   -5698348.719   2185593.351  -3204006.822
10 0 59780  69102.000000  0   -5191973.598   2186740.248  -3972903.854
10 0 59780  69222.000000  0   -4595638.593   2140180.897  -4672165.292
10 0 59780  69342.000000  0   -3920650.931   2045291.482  -5289625.678
10 0 59780  69462.000000  0   -3179659.249   1902493.986  -5814573.430
10 0 59780  69582.000000  0   -2386410.645   1713266.047  -6237926.609
10 0 59780  69702.000000  0   -1555491.632   1480128.968  -6552379.716
10 0 59780  69822.000000  0    -702059.166   1206614.299  -6752517.208
10 0 59780  69942.000000  0     158431.689    897210.029  -6834896.320
10 0 59780  70062.000000  0    1010500.194    557288.277  -6798099.722
10 0 59780  70182.000000  0    1838912.330    193013.968  -6642759.595
10 0 59780  70302.000000  0    2628947.488   -188764.382  -6371547.056
10 0 59780  70422.000000  0    3366655.094   -580639.276  -5989131.735
10 0 59780  70542.000000  0    4039098.471   -974783.403  -5502108.636
10 0 59780  70662.000000  0    4634581.677  -1363100.842  -4918895.921
10 0 59780  70782.000000  0    5142858.302  -1737389.691  -4249601.399
10 0 59780  70902.000000  0    5555315.646  -2089511.580  -3505857.795
10 0 59780  71022.000000  0    5865131.060  -2411565.012  -2700628.942
10 0 59780  71142.000000  0    6067396.051  -2696059.064  -1847988.513
10 0 59780  71262.000000  0    6159204.087  -2936082.928   -962875.201
10 0 59780  71382.000000  0    6139700.339  -3125467.238    -60829.009
10 0 59780  71502.000000  0    6010090.744  -3258933.077    842286.969
10 0 59780  71622.000000  0    5773610.659  -3332224.799   1730573.345
10 0 59780  71742.000000  0    5435450.556  -3342222.102   2588384.794
10 0 59780  71862.000000  0    5002641.856  -3287028.807   3400613.499
99
